{"type": "FeatureCollection", "features": [ {"type": "Feature", "properties": {"norad_id": 66737, "name": "FLOCK 4H-34", "group": "last-30-days", "lat": -13.127348371344667, "lon": 72.64696550140278, "alt_km": 520.703754451406, "timestamp": "2025-12-25T07:41:08.448834+00:00", "meta": {"OBJECT_NAME": "FLOCK 4H-34", "OBJECT_ID": "2025-276BZ", "EPOCH": "2025-12-23T20:54:55.278432", "MEAN_MOTION": 15.17562953, "ECCENTRICITY": 0.0002457, "INCLINATION": 97.4431, "RA_OF_ASC_NODE": 69.4773, "ARG_OF_PERICENTER": 51.6333, "MEAN_ANOMALY": 308.5121, "EPHEMERIS_TYPE": 0, "CLASSIFICATION_TYPE": "U", "NORAD_CAT_ID": 66737, "ELEMENT_SET_NO": 999, "REV_AT_EPOCH": 306, "BSTAR": -0.020844, "MEAN_MOTION_DOT": -0.00396416, "MEAN_MOTION_DDOT": 0}, "tle": {"line1": "1 66737U 25276BZ  25357.87147313 -.00396416  00000+0 -20844-1 0  9996", "line2": "2 66737  97.4431  69.4773 0002457  51.6333 308.5121 15.17562953  3067"}}, "geometry": {"type": "Point", "coordinates": [72.64696550140278, -13.127348371344667]}}, {"type": "Feature", "properties": {"norad_id": 66738, "name": "FLOCK 4H-35", "group": "last-30-days", "lat": 3.029789069898284, "lon": 70.4984755656358, "alt_km": 515.0579040543016, "timestamp": "2025-12-25T07:41:08.448844+00:00", "meta": {"OBJECT_NAME": "FLOCK 4H-35", "OBJECT_ID": "2025-276CA", "EPOCH": "2025-12-24T20:36:00.044640", "MEAN_MOTION": 15.1827157, "ECCENTRICITY": 0.00025868, "INCLINATION": 97.44, "RA_OF_ASC_NODE": 70.4405, "ARG_OF_PERICENTER": 143.4424, "MEAN_ANOMALY": 216.6987, "EPHEMERIS_TYPE": 0, "CLASSIFICATION_TYPE": "U", "NORAD_CAT_ID": 66738, "ELEMENT_SET_NO": 999, "REV_AT_EPOCH": 325, "BSTAR": 0.0004873266, "MEAN_MOTION_DOT": 9.925e-05, "MEAN_MOTION_DDOT": 0}, "tle": {"line1": "1 66738U 25276CA  25358.85833385  .00009925  00000+0  48733-3 0  9990", "line2": "2 66738  97.4400  70.4405 0002586 143.4424 216.6987 15.18271570  3255"}}, "geometry": {"type": "Point", "coordinates": [70.4984755656358, 3.029789069898284]}}, {"type": "Feature", "properties": {"norad_id": 66739, "name": "FLOCK 4H-36", "group": "last-30-days", "lat": -21.028201101672877, "lon": 73.78363218778212, "alt_km": 518.8483258005135, "timestamp": "2025-12-25T07:41:08.448856+00:00", "meta": {"OBJECT_NAME": "FLOCK 4H-36", "OBJECT_ID": "2025-276CB", "EPOCH": "2025-12-24T20:42:17.638560", "MEAN_MOTION": 15.18019729, "ECCENTRICITY": 0.00025407, "INCLINATION": 97.4446, "RA_OF_ASC_NODE": 70.4522, "ARG_OF_PERICENTER": 175.8433, "MEAN_ANOMALY": 184.2822, "EPHEMERIS_TYPE": 0, "CLASSIFICATION_TYPE": "U", "NORAD_CAT_ID": 66739, "ELEMENT_SET_NO": 999, "REV_AT_EPOCH": 396, "BSTAR": 0.00048208839, "MEAN_MOTION_DOT": 9.747e-05, "MEAN_MOTION_DDOT": 0}, "tle": {"line1": "1 66739U 25276CB  25358.86270415  .00009747  00000+0  48209-3 0  9991", "line2": "2 66739  97.4446  70.4522 0002540 175.8433 184.2822 15.18019729  3967"}}, "geometry": {"type": "Point", "coordinates": [73.78363218778212, -21.028201101672877]}}, {"type": "Feature", "properties": {"norad_id": 66740, "name": "TRANSPORTER-15CC", "group": "last-30-days", "lat": -49.1535757871537, "lon": 79.57453625448093, "alt_km": 519.4258649629382, "timestamp": "2025-12-25T07:41:08.448866+00:00", "meta": {"OBJECT_NAME": "TRANSPORTER-15CC", "OBJECT_ID": "2025-276CC", "EPOCH": "2025-12-24T20:49:41.955744", "MEAN_MOTION": 15.17743393, "ECCENTRICITY": 0.00021569, "INCLINATION": 97.4409, "RA_OF_ASC_NODE": 70.4356, "ARG_OF_PERICENTER": 226.871, "MEAN_ANOMALY": 133.2343, "EPHEMERIS_TYPE": 0, "CLASSIFICATION_TYPE": "U", "NORAD_CAT_ID": 66740, "ELEMENT_SET_NO": 999, "REV_AT_EPOCH": 396, "BSTAR": 0.00053522672, "MEAN_MOTION_DOT": 0.00010744, "MEAN_MOTION_DDOT": 0}, "tle": {"line1": "1 66740U 25276CC  25358.86784671  .00010744  00000+0  53523-3 0  9991", "line2": "2 66740  97.4409  70.4356 0002156 226.8710 133.2343 15.17743393  3963"}}, "geometry": {"type": "Point", "coordinates": [79.57453625448093, -49.1535757871537]}}, {"type": "Feature", "properties": {"norad_id": 66741, "name": "TRANSPORTER-15CD", "group": "last-30-days", "lat": -55.17221565345709, "lon": 81.69591684802285, "alt_km": 520.0163614397461, "timestamp": "2025-12-25T07:41:08.448876+00:00", "meta": {"OBJECT_NAME": "TRANSPORTER-15CD", "OBJECT_ID": "2025-276CD", "EPOCH": "2025-12-24T20:51:16.800480", "MEAN_MOTION": 15.17638885, "ECCENTRICITY": 0.000108, "INCLINATION": 97.4404, "RA_OF_ASC_NODE": 70.4259, "ARG_OF_PERICENTER": 217.8314, "MEAN_ANOMALY": 142.2844, "EPHEMERIS_TYPE": 0, "CLASSIFICATION_TYPE": "U", "NORAD_CAT_ID": 66741, "ELEMENT_SET_NO": 999, "REV_AT_EPOCH": 396, "BSTAR": 0.00027552863, "MEAN_MOTION_DOT": 5.478e-05, "MEAN_MOTION_DDOT": 0}, "tle": {"line1": "1 66741U 25276CD  25358.86894445  .00005478  00000+0  27553-3 0  9995", "line2": "2 66741  97.4404  70.4259 0001080 217.8314 142.2844 15.17638885  3961"}}, "geometry": {"type": "Point", "coordinates": [81.69591684802285, -55.17221565345709]}}, {"type": "Feature", "properties": {"norad_id": 66742, "name": "TRANSPORTER-15CE", "group": "last-30-days", "lat": -46.30872411316323, "lon": 78.73274419858024, "alt_km": 520.4350585467973, "timestamp": "2025-12-25T07:41:08.448887+00:00", "meta": {"OBJECT_NAME": "TRANSPORTER-15CE", "OBJECT_ID": "2025-276CE", "EPOCH": "2025-12-24T22:23:51.885888", "MEAN_MOTION": 15.17721827, "ECCENTRICITY": 0.00018408, "INCLINATION": 97.44, "RA_OF_ASC_NODE": 70.4904, "ARG_OF_PERICENTER": 179.8419, "MEAN_ANOMALY": 180.2816, "EPHEMERIS_TYPE": 0, "CLASSIFICATION_TYPE": "U", "NORAD_CAT_ID": 66742, "ELEMENT_SET_NO": 999, "REV_AT_EPOCH": 397, "BSTAR": 0.00032624349, "MEAN_MOTION_DOT": 6.515e-05, "MEAN_MOTION_DDOT": 0}, "tle": {"line1": "1 66742U 25276CE  25358.93323942  .00006515  00000+0  32624-3 0  9991", "line2": "2 66742  97.4400  70.4904 0001840 179.8419 180.2816 15.17721827  3973"}}, "geometry": {"type": "Point", "coordinates": [78.73274419858024, -46.30872411316323]}}, {"type": "Feature", "properties": {"norad_id": 66743, "name": "TRANSPORTER-15CF", "group": "last-30-days", "lat": -68.39925954634217, "lon": 90.10809476814713, "alt_km": 518.6770645665692, "timestamp": "2025-12-25T07:41:08.448899+00:00", "meta": {"OBJECT_NAME": "TRANSPORTER-15CF", "OBJECT_ID": "2025-276CF", "EPOCH": "2025-12-24T17:44:58.609536", "MEAN_MOTION": 15.17443777, "ECCENTRICITY": 0.00025269, "INCLINATION": 97.4332, "RA_OF_ASC_NODE": 70.2853, "ARG_OF_PERICENTER": 263.2405, "MEAN_ANOMALY": 96.8541, "EPHEMERIS_TYPE": 0, "CLASSIFICATION_TYPE": "U", "NORAD_CAT_ID": 66743, "ELEMENT_SET_NO": 999, "REV_AT_EPOCH": 394, "BSTAR": 0.008927038, "MEAN_MOTION_DOT": 0.00182978, "MEAN_MOTION_DDOT": 0}, "tle": {"line1": "1 66743U 25276CF  25358.73956724  .00182978  00000+0  89270-2 0  9996", "line2": "2 66743  97.4332  70.2853 0002526 263.2405  96.8541 15.17443777  3943"}}, "geometry": {"type": "Point", "coordinates": [90.10809476814713, -68.39925954634217]}}, {"type": "Feature", "properties": {"norad_id": 66744, "name": "TRANSPORTER-15CG", "group": "last-30-days", "lat": -48.34410539725478, "lon": 79.22924582082052, "alt_km": 511.83959706525, "timestamp": "2025-12-25T07:41:08.448909+00:00", "meta": {"OBJECT_NAME": "TRANSPORTER-15CG", "OBJECT_ID": "2025-276CG", "EPOCH": "2025-12-24T20:50:10.389120", "MEAN_MOTION": 15.19335315, "ECCENTRICITY": 0.00242979, "INCLINATION": 97.3869, "RA_OF_ASC_NODE": 70.4013, "ARG_OF_PERICENTER": 232.5396, "MEAN_ANOMALY": 127.3629, "EPHEMERIS_TYPE": 0, "CLASSIFICATION_TYPE": "U", "NORAD_CAT_ID": 66744, "ELEMENT_SET_NO": 999, "REV_AT_EPOCH": 396, "BSTAR": 0.00053536577, "MEAN_MOTION_DOT": 0.00011339, "MEAN_MOTION_DDOT": 0}, "tle": {"line1": "1 66744U 25276CG  25358.86817580  .00011339  00000+0  53537-3 0  9997", "line2": "2 66744  97.3869  70.4013 0024297 232.5396 127.3629 15.19335315  3964"}}, "geometry": {"type": "Point", "coordinates": [79.22924582082052, -48.34410539725478]}}, {"type": "Feature", "properties": {"norad_id": 66745, "name": "TRANSPORTER-15CH", "group": "last-30-days", "lat": -69.41731758400053, "lon": 91.2293254972642, "alt_km": 521.0570165178624, "timestamp": "2025-12-25T07:41:08.448919+00:00", "meta": {"OBJECT_NAME": "TRANSPORTER-15CH", "OBJECT_ID": "2025-276CH", "EPOCH": "2025-12-24T22:30:04.361472", "MEAN_MOTION": 15.1740555, "ECCENTRICITY": 0.0001188, "INCLINATION": 97.4406, "RA_OF_ASC_NODE": 70.4877, "ARG_OF_PERICENTER": 194.8425, "MEAN_ANOMALY": 165.2774, "EPHEMERIS_TYPE": 0, "CLASSIFICATION_TYPE": "U", "NORAD_CAT_ID": 66745, "ELEMENT_SET_NO": 999, "REV_AT_EPOCH": 397, "BSTAR": 0.00015800215, "MEAN_MOTION_DOT": 3.091e-05, "MEAN_MOTION_DDOT": 0}, "tle": {"line1": "1 66745U 25276CH  25358.93755048  .00003091  00000+0  15800-3 0  9993", "line2": "2 66745  97.4406  70.4877 0001188 194.8425 165.2774 15.17405550  3978"}}, "geometry": {"type": "Point", "coordinates": [91.2293254972642, -69.41731758400053]}}, {"type": "Feature", "properties": {"norad_id": 66746, "name": "TRANSPORTER-15CJ", "group": "last-30-days", "lat": -64.06727834667873, "lon": 86.33422528113006, "alt_km": 522.5040490012325, "timestamp": "2025-12-25T07:41:08.448931+00:00", "meta": {"OBJECT_NAME": "TRANSPORTER-15CJ", "OBJECT_ID": "2025-276CJ", "EPOCH": "2025-12-23T05:20:14.518464", "MEAN_MOTION": 15.17767855, "ECCENTRICITY": 0.00063526, "INCLINATION": 97.3982, "RA_OF_ASC_NODE": 68.7864, "ARG_OF_PERICENTER": 180.4238, "MEAN_ANOMALY": 179.6992, "EPHEMERIS_TYPE": 0, "CLASSIFICATION_TYPE": "U", "NORAD_CAT_ID": 66746, "ELEMENT_SET_NO": 999, "REV_AT_EPOCH": 371, "BSTAR": -0.0014121211, "MEAN_MOTION_DOT": -0.00028468, "MEAN_MOTION_DDOT": 0}, "tle": {"line1": "1 66746U 25276CJ  25357.22239026 -.00028468  00000+0 -14121-2 0  9999", "line2": "2 66746  97.3982  68.7864 0006352 180.4238 179.6992 15.17767855  3716"}}, "geometry": {"type": "Point", "coordinates": [86.33422528113006, -64.06727834667873]}}]}